CCSDS_OMM_VERS = 2.0
CREATION_DATE  = 
ORIGINATOR     = 

OBJECT_NAME    = HTV-X1
OBJECT_ID      = 2025-241A
CENTER_NAME    = EARTH
REF_FRAME      = TEME
TIME_SYSTEM    = UTC
MEAN_ELEMENT_THEORY = SGP/SGP4

EPOCH          = 2026-03-25T19:44:46.137408
MEAN_MOTION    = 15.32410776
ECCENTRICITY   = .0007339
INCLINATION    = 51.6394
RA_OF_ASC_NODE = 355.3419
ARG_OF_PERICENTER = 234.0271
MEAN_ANOMALY   = 126.0030

EPHEMERIS_TYPE = 0
CLASSIFICATION_TYPE = U
NORAD_CAT_ID   = 66174
ELEMENT_SET_NO = 999
REV_AT_EPOCH   = 2341
BSTAR          = .64996E-4
MEAN_MOTION_DOT = .1693E-4
MEAN_MOTION_DDOT = 0

CCSDS_OMM_VERS = 2.0
CREATION_DATE  = 
ORIGINATOR     = 

OBJECT_NAME    = SZ-21 MODULE
OBJECT_ID      = 2025-246C
CENTER_NAME    = EARTH
REF_FRAME      = TEME
TIME_SYSTEM    = UTC
MEAN_ELEMENT_THEORY = SGP/SGP4

EPOCH          = 2026-03-25T09:52:53.814144
MEAN_MOTION    = 15.69739008
ECCENTRICITY   = .00010026
INCLINATION    = 41.4741
RA_OF_ASC_NODE = 106.4894
ARG_OF_PERICENTER = 208.3621
MEAN_ANOMALY   = 151.7166

EPHEMERIS_TYPE = 0
CLASSIFICATION_TYPE = U
NORAD_CAT_ID   = 66515
ELEMENT_SET_NO = 999
REV_AT_EPOCH   = 2054
BSTAR          = .28093455E-3
MEAN_MOTION_DOT = .3423E-3
MEAN_MOTION_DDOT = 0

CCSDS_OMM_VERS = 2.0
CREATION_DATE  = 
ORIGINATOR     = 

OBJECT_NAME    = SHENZHOU-22
OBJECT_ID      = 2025-272A
CENTER_NAME    = EARTH
REF_FRAME      = TEME
TIME_SYSTEM    = UTC
MEAN_ELEMENT_THEORY = SGP/SGP4

EPOCH          = 2026-03-25T20:05:25.643040
MEAN_MOTION    = 15.61486977
ECCENTRICITY   = .0004448
INCLINATION    = 41.4667
RA_OF_ASC_NODE = 109.8475
ARG_OF_PERICENTER = 22.3282
MEAN_ANOMALY   = 337.7750

EPHEMERIS_TYPE = 0
CLASSIFICATION_TYPE = U
NORAD_CAT_ID   = 66645
ELEMENT_SET_NO = 999
REV_AT_EPOCH   = 28022
BSTAR          = .25952E-3
MEAN_MOTION_DOT = .22588E-3
MEAN_MOTION_DDOT = 0

CCSDS_OMM_VERS = 2.0
CREATION_DATE  = 
ORIGINATOR     = 

OBJECT_NAME    = SOYUZ-MS 28
OBJECT_ID      = 2025-275A
CENTER_NAME    = EARTH
REF_FRAME      = TEME
TIME_SYSTEM    = UTC
MEAN_ELEMENT_THEORY = SGP/SGP4

EPOCH          = 2026-03-25T20:11:46.934880
MEAN_MOTION    = 15.48540672
ECCENTRICITY   = .0006235
INCLINATION    = 51.6341
RA_OF_ASC_NODE = 352.5134
ARG_OF_PERICENTER = 232.7336
MEAN_ANOMALY   = 127.3084

EPHEMERIS_TYPE = 0
CLASSIFICATION_TYPE = U
NORAD_CAT_ID   = 66664
ELEMENT_SET_NO = 999
REV_AT_EPOCH   = 55889
BSTAR          = .22938E-3
MEAN_MOTION_DOT = .12012E-3
MEAN_MOTION_DDOT = 0

CCSDS_OMM_VERS = 2.0
CREATION_DATE  = 
ORIGINATOR     = 

OBJECT_NAME    = DUPLEX
OBJECT_ID      = 1998-067XS
CENTER_NAME    = EARTH
REF_FRAME      = TEME
TIME_SYSTEM    = UTC
MEAN_ELEMENT_THEORY = SGP/SGP4

EPOCH          = 2026-03-25T10:36:54.381312
MEAN_MOTION    = 15.57191186
ECCENTRICITY   = .00031613
INCLINATION    = 51.6301
RA_OF_ASC_NODE = 350.6000
ARG_OF_PERICENTER = 180.1942
MEAN_ANOMALY   = 179.9049

EPHEMERIS_TYPE = 0
CLASSIFICATION_TYPE = U
NORAD_CAT_ID   = 66906
ELEMENT_SET_NO = 999
REV_AT_EPOCH   = 1758
BSTAR          = .34288141E-3
MEAN_MOTION_DOT = .25E-3
MEAN_MOTION_DDOT = 0

CCSDS_OMM_VERS = 2.0
CREATION_DATE  = 
ORIGINATOR     = 

OBJECT_NAME    = ISS OBJECT XT
OBJECT_ID      = 1998-067XT
CENTER_NAME    = EARTH
REF_FRAME      = TEME
TIME_SYSTEM    = UTC
MEAN_ELEMENT_THEORY = SGP/SGP4

EPOCH          = 2026-03-25T02:16:59.867040
MEAN_MOTION    = 15.74759549
ECCENTRICITY   = .00054335
INCLINATION    = 51.6251
RA_OF_ASC_NODE = 346.7505
ARG_OF_PERICENTER = 178.6760
MEAN_ANOMALY   = 181.4255

EPHEMERIS_TYPE = 0
CLASSIFICATION_TYPE = U
NORAD_CAT_ID   = 66907
ELEMENT_SET_NO = 999
REV_AT_EPOCH   = 1760
BSTAR          = .1219355E-2
MEAN_MOTION_DOT = .186952E-2
MEAN_MOTION_DDOT = 0

CCSDS_OMM_VERS = 2.0
CREATION_DATE  = 
ORIGINATOR     = 

OBJECT_NAME    = ISS OBJECT XU
OBJECT_ID      = 1998-067XU
CENTER_NAME    = EARTH
REF_FRAME      = TEME
TIME_SYSTEM    = UTC
MEAN_ELEMENT_THEORY = SGP/SGP4

EPOCH          = 2026-03-25T02:12:19.331424
MEAN_MOTION    = 15.74960927
ECCENTRICITY   = .00056636
INCLINATION    = 51.6242
RA_OF_ASC_NODE = 346.7246
ARG_OF_PERICENTER = 178.7576
MEAN_ANOMALY   = 181.3439

EPHEMERIS_TYPE = 0
CLASSIFICATION_TYPE = U
NORAD_CAT_ID   = 66908
ELEMENT_SET_NO = 999
REV_AT_EPOCH   = 1760
BSTAR          = .12551817E-2
MEAN_MOTION_DOT = .194341E-2
MEAN_MOTION_DDOT = 0

CCSDS_OMM_VERS = 2.0
CREATION_DATE  = 
ORIGINATOR     = 

OBJECT_NAME    = SILVERSAT
OBJECT_ID      = 1998-067XV
CENTER_NAME    = EARTH
REF_FRAME      = TEME
TIME_SYSTEM    = UTC
MEAN_ELEMENT_THEORY = SGP/SGP4

EPOCH          = 2026-03-25T21:06:44.319168
MEAN_MOTION    = 15.80017533
ECCENTRICITY   = .0006463
INCLINATION    = 51.6219
RA_OF_ASC_NODE = 341.4736
ARG_OF_PERICENTER = 189.5694
MEAN_ANOMALY   = 170.5186

EPHEMERIS_TYPE = 0
CLASSIFICATION_TYPE = U
NORAD_CAT_ID   = 66909
ELEMENT_SET_NO = 999
REV_AT_EPOCH   = 1774
BSTAR          = .1296E-2
MEAN_MOTION_DOT = .253325E-2
MEAN_MOTION_DDOT = 0

CCSDS_OMM_VERS = 2.0
CREATION_DATE  = 
ORIGINATOR     = 

OBJECT_NAME    = ISS OBJECT XW
OBJECT_ID      = 1998-067XW
CENTER_NAME    = EARTH
REF_FRAME      = TEME
TIME_SYSTEM    = UTC
MEAN_ELEMENT_THEORY = SGP/SGP4

EPOCH          = 2026-03-25T02:22:39.926208
MEAN_MOTION    = 15.73519886
ECCENTRICITY   = .00059003
INCLINATION    = 51.6237
RA_OF_ASC_NODE = 346.7691
ARG_OF_PERICENTER = 178.0265
MEAN_ANOMALY   = 182.0758

EPHEMERIS_TYPE = 0
CLASSIFICATION_TYPE = U
NORAD_CAT_ID   = 66910
ELEMENT_SET_NO = 999
REV_AT_EPOCH   = 1760
BSTAR          = .1138978E-2
MEAN_MOTION_DOT = .165061E-2
MEAN_MOTION_DDOT = 0

CCSDS_OMM_VERS = 2.0
CREATION_DATE  = 
ORIGINATOR     = 

OBJECT_NAME    = ISS OBJECT XX
OBJECT_ID      = 1998-067XX
CENTER_NAME    = EARTH
REF_FRAME      = TEME
TIME_SYSTEM    = UTC
MEAN_ELEMENT_THEORY = SGP/SGP4

EPOCH          = 2026-03-25T00:19:20.461728
MEAN_MOTION    = 15.85123698
ECCENTRICITY   = .0007914
INCLINATION    = 51.6196
RA_OF_ASC_NODE = 344.6599
ARG_OF_PERICENTER = 187.2410
MEAN_ANOMALY   = 172.8480

EPHEMERIS_TYPE = 0
CLASSIFICATION_TYPE = U
NORAD_CAT_ID   = 66911
ELEMENT_SET_NO = 999
REV_AT_EPOCH   = 1761
BSTAR          = .14890518E-2
MEAN_MOTION_DOT = .375397E-2
MEAN_MOTION_DDOT = 0

CCSDS_OMM_VERS = 2.0
CREATION_DATE  = 
ORIGINATOR     = 

OBJECT_NAME    = ISS OBJECT XY
OBJECT_ID      = 1998-067XY
CENTER_NAME    = EARTH
REF_FRAME      = TEME
TIME_SYSTEM    = UTC
MEAN_ELEMENT_THEORY = SGP/SGP4

EPOCH          = 2026-03-25T00:46:53.590944
MEAN_MOTION    = 15.66770073
ECCENTRICITY   = .00040616
INCLINATION    = 51.6274
RA_OF_ASC_NODE = 349.3528
ARG_OF_PERICENTER = 177.5778
MEAN_ANOMALY   = 182.5238

EPHEMERIS_TYPE = 0
CLASSIFICATION_TYPE = U
NORAD_CAT_ID   = 66912
ELEMENT_SET_NO = 999
REV_AT_EPOCH   = 1755
BSTAR          = .87844807E-3
MEAN_MOTION_DOT = .95055E-3
MEAN_MOTION_DDOT = 0

CCSDS_OMM_VERS = 2.0
CREATION_DATE  = 
ORIGINATOR     = 

OBJECT_NAME    = KNACKSAT-2
OBJECT_ID      = 1998-067XZ
CENTER_NAME    = EARTH
REF_FRAME      = TEME
TIME_SYSTEM    = UTC
MEAN_ELEMENT_THEORY = SGP/SGP4

EPOCH          = 2026-03-25T18:08:13.141824
MEAN_MOTION    = 15.53147320
ECCENTRICITY   = .0009865
INCLINATION    = 51.6320
RA_OF_ASC_NODE = 351.9428
ARG_OF_PERICENTER = 244.0094
MEAN_ANOMALY   = 115.9880

EPHEMERIS_TYPE = 0
CLASSIFICATION_TYPE = U
NORAD_CAT_ID   = 67683
ELEMENT_SET_NO = 999
REV_AT_EPOCH   = 728
BSTAR          = .62196E-3
MEAN_MOTION_DOT = .39524E-3
MEAN_MOTION_DDOT = 0

